{"fetched_at":"2026-07-14T17:41:09.714Z","source":"https://celestrak.org/NORAD/elements/gp.php?NAME=SPOT&FORMAT=JSON","constellation":"spot","records":[{"OBJECT_NAME":"SPOT 6","OBJECT_ID":"2012-047A","EPOCH":"2026-07-14T03:48:16.764768","CLASSIFICATION_TYPE":"U","MEAN_MOTION":14.58538166,"ECCENTRICITY":0.0001101,"INCLINATION":98.2116,"RA_OF_ASC_NODE":262.1498,"ARG_OF_PERICENTER":85.08,"MEAN_ANOMALY":275.0525,"EPHEMERIS_TYPE":0,"NORAD_CAT_ID":38755,"ELEMENT_SET_NO":999,"REV_AT_EPOCH":73698,"BSTAR":0.000014103,"MEAN_MOTION_DOT":2e-7,"MEAN_MOTION_DDOT":0},{"OBJECT_NAME":"SPOT 7","OBJECT_ID":"2014-034A","EPOCH":"2026-07-14T03:59:06.123840","CLASSIFICATION_TYPE":"U","MEAN_MOTION":14.6098067,"ECCENTRICITY":0.0001592,"INCLINATION":98.0623,"RA_OF_ASC_NODE":256.9608,"ARG_OF_PERICENTER":96.2458,"MEAN_ANOMALY":263.8924,"EPHEMERIS_TYPE":0,"NORAD_CAT_ID":40053,"ELEMENT_SET_NO":999,"REV_AT_EPOCH":64107,"BSTAR":0.000066189,"MEAN_MOTION_DOT":0.00000279,"MEAN_MOTION_DDOT":0}]}
